{
  "type": "FeatureCollection",
  "features": [
    {
      "type": "Feature",
      "properties": {
        "norad_id": 26766,
        "name": "INTELSAT 10 (IS-10)",
        "group": "intelsat",
        "lat": -8.445986789627147,
        "lon": -42.3157321098561,
        "alt_km": 36096.54053654104,
        "timestamp": "2025-12-26T09:30:53.295699+00:00",
        "meta_object_name": "INTELSAT 10 (IS-10)",
        "meta_object_id": "2001-019A",
        "meta_epoch": "2025-12-25T19:25:55.835328",
        "meta_mean_motion": 0.9907201,
        "meta_eccentricity": 0.00080047,
        "meta_inclination": 8.6586,
        "meta_ra_of_asc_node": 61.0243,
        "meta_arg_of_pericenter": 229.8346,
        "meta_mean_anomaly": 177.6501,
        "meta_ephemeris_type": 0,
        "meta_classification_type": "U",
        "meta_norad_cat_id": 26766,
        "meta_element_set_no": 999,
        "meta_rev_at_epoch": 4386,
        "meta_bstar": 0,
        "meta_mean_motion_dot": 3.8e-07,
        "meta_mean_motion_ddot": 0,
        "tle_line1": "1 26766U 01019A   25359.80967402  .00000038  00000+0  00000+0 0  9997",
        "tle_line2": "2 26766   8.6586  61.0243 0008004 229.8346 177.6501  0.99072010 43860"
      },
      "geometry": {
        "type": "Point",
        "coordinates": [
          -42.3157321098561,
          -8.445986789627147
        ]
      }
    },
    {
      "type": "Feature",
      "properties": {
        "norad_id": 26900,
        "name": "INTELSAT 902 (IS-902)",
        "group": "intelsat",
        "lat": 5.2059316237119075,
        "lon": -172.3028214052788,
        "alt_km": 35782.32819068294,
        "timestamp": "2025-12-26T09:30:53.295738+00:00",
        "meta_object_name": "INTELSAT 902 (IS-902)",
        "meta_object_id": "2001-039A",
        "meta_epoch": "2025-12-15T13:09:02.081664",
        "meta_mean_motion": 1.0027087,
        "meta_eccentricity": 0.00045028,
        "meta_inclination": 5.6536,
        "meta_ra_of_asc_node": 74.0372,
        "meta_arg_of_pericenter": 189.6359,
        "meta_mean_anomaly": 327.9329,
        "meta_ephemeris_type": 0,
        "meta_classification_type": "U",
        "meta_norad_cat_id": 26900,
        "meta_element_set_no": 999,
        "meta_rev_at_epoch": 8885,
        "meta_bstar": 0,
        "meta_mean_motion_dot": -2.65e-06,
        "meta_mean_motion_ddot": 0,
        "tle_line1": "1 26900U 01039A   25349.54794076 -.00000265  00000+0  00000+0 0  9997",
        "tle_line2": "2 26900   5.6536  74.0372 0004502 189.6359 327.9329  1.00270870 88858"
      },
      "geometry": {
        "type": "Point",
        "coordinates": [
          -172.3028214052788,
          5.2059316237119075
        ]
      }
    },
    {
      "type": "Feature",
      "properties": {
        "norad_id": 27380,
        "name": "INTELSAT 904 (IS-904)",
        "group": "intelsat",
        "lat": 4.57508239286033,
        "lon": -153.45412743710617,
        "alt_km": 35788.85385109476,
        "timestamp": "2025-12-26T09:30:53.295762+00:00",
        "meta_object_name": "INTELSAT 904 (IS-904)",
        "meta_object_id": "2002-007A",
        "meta_epoch": "2025-12-26T00:54:05.260032",
        "meta_mean_motion": 1.00272555,
        "meta_eccentricity": 0.0002087,
        "meta_inclination": 6.4858,
        "meta_ra_of_asc_node": 71.2782,
        "meta_arg_of_pericenter": 249.0692,
        "meta_mean_anomaly": 116.4823,
        "meta_ephemeris_type": 0,
        "meta_classification_type": "U",
        "meta_norad_cat_id": 27380,
        "meta_element_set_no": 999,
        "meta_rev_at_epoch": 5003,
        "meta_bstar": 0,
        "meta_mean_motion_dot": -2.06e-06,
        "meta_mean_motion_ddot": 0,
        "tle_line1": "1 27380U 02007A   25360.03756088 -.00000206  00000+0  00000+0 0  9999",
        "tle_line2": "2 27380   6.4858  71.2782 0002087 249.0692 116.4823  1.00272555 50039"
      },
      "geometry": {
        "type": "Point",
        "coordinates": [
          -153.45412743710617,
          4.57508239286033
        ]
      }
    },
    {
      "type": "Feature",
      "properties": {
        "norad_id": 27426,
        "name": "DIRECTV 5 (TEMPO 1)",
        "group": "intelsat",
        "lat": 3.425312788497239,
        "lon": 127.6394022943987,
        "alt_km": 35798.47047922908,
        "timestamp": "2025-12-26T09:30:53.295781+00:00",
        "meta_object_name": "DIRECTV 5 (TEMPO 1)",
        "meta_object_id": "2002-023A",
        "meta_epoch": "2025-12-25T07:28:38.731296",
        "meta_mean_motion": 1.00271555,
        "meta_eccentricity": 0.0003354,
        "meta_inclination": 4.4323,
        "meta_ra_of_asc_node": 77.5052,
        "meta_arg_of_pericenter": 204.4666,
        "meta_mean_anomaly": 174.1445,
        "meta_ephemeris_type": 0,
        "meta_classification_type": "U",
        "meta_norad_cat_id": 27426,
        "meta_element_set_no": 999,
        "meta_rev_at_epoch": 8638,
        "meta_bstar": 0,
        "meta_mean_motion_dot": -3.7e-07,
        "meta_mean_motion_ddot": 0,
        "tle_line1": "1 27426U 02023A   25359.31155939 -.00000037  00000+0  00000+0 0  9997",
        "tle_line2": "2 27426   4.4323  77.5052 0003354 204.4666 174.1445  1.00271555 86385"
      },
      "geometry": {
        "type": "Point",
        "coordinates": [
          127.6394022943987,
          3.425312788497239
        ]
      }
    },
    {
      "type": "Feature",
      "properties": {
        "norad_id": 27438,
        "name": "INTELSAT 905 (IS-905)",
        "group": "intelsat",
        "lat": 3.0549088448211075,
        "lon": 100.53657467326674,
        "alt_km": 35796.58794862594,
        "timestamp": "2025-12-26T09:30:53.295798+00:00",
        "meta_object_name": "INTELSAT 905 (IS-905)",
        "meta_object_id": "2002-027A",
        "meta_epoch": "2025-12-23T05:41:27.377952",
        "meta_mean_motion": 1.00273243,
        "meta_eccentricity": 0.00027491,
        "meta_inclination": 6.3102,
        "meta_ra_of_asc_node": 71.9349,
        "meta_arg_of_pericenter": 206.5226,
        "meta_mean_anomaly": 121.7385,
        "meta_ephemeris_type": 0,
        "meta_classification_type": "U",
        "meta_norad_cat_id": 27438,
        "meta_element_set_no": 999,
        "meta_rev_at_epoch": 4959,
        "meta_bstar": 0,
        "meta_mean_motion_dot": 1.12e-06,
        "meta_mean_motion_ddot": 0,
        "tle_line1": "1 27438U 02027A   25357.23712243  .00000112  00000+0  00000+0 0  9993",
        "tle_line2": "2 27438   6.3102  71.9349 0002749 206.5226 121.7385  1.00273243 49592"
      },
      "geometry": {
        "type": "Point",
        "coordinates": [
          100.53657467326674,
          3.0549088448211075
        ]
      }
    },
    {
      "type": "Feature",
      "properties": {
        "norad_id": 27445,
        "name": "GALAXY 3C (G-3C)",
        "group": "intelsat",
        "lat": 2.942249443047651,
        "lon": 142.96131864250873,
        "alt_km": 35781.978287846716,
        "timestamp": "2025-12-26T09:30:53.295814+00:00",
        "meta_object_name": "GALAXY 3C (G-3C)",
        "meta_object_id": "2002-030A",
        "meta_epoch": "2025-12-26T00:40:14.516256",
        "meta_mean_motion": 1.00271406,
        "meta_eccentricity": 9.95e-05,
        "meta_inclination": 3.2949,
        "meta_ra_of_asc_node": 80.3648,
        "meta_arg_of_pericenter": 85.9559,
        "meta_mean_anomaly": 203.6643,
        "meta_ephemeris_type": 0,
        "meta_classification_type": "U",
        "meta_norad_cat_id": 27445,
        "meta_element_set_no": 999,
        "meta_rev_at_epoch": 4475,
        "meta_bstar": 0,
        "meta_mean_motion_dot": -1.32e-06,
        "meta_mean_motion_ddot": 0,
        "tle_line1": "1 27445U 02030A   25360.02794579 -.00000132  00000+0  00000+0 0  9991",
        "tle_line2": "2 27445   3.2949  80.3648 0000995  85.9559 203.6643  1.00271406 44759"
      },
      "geometry": {
        "type": "Point",
        "coordinates": [
          142.96131864250873,
          2.942249443047651
        ]
      }
    },
    {
      "type": "Feature",
      "properties": {
        "norad_id": 27513,
        "name": "INTELSAT 906 (IS-906)",
        "group": "intelsat",
        "lat": -3.9357285756385623,
        "lon": -58.10505712194981,
        "alt_km": 35763.08045486616,
        "timestamp": "2025-12-26T09:30:53.295827+00:00",
        "meta_object_name": "INTELSAT 906 (IS-906)",
        "meta_object_id": "2002-041A",
        "meta_epoch": "2025-12-25T18:30:25.911072",
        "meta_mean_motion": 1.00270895,
        "meta_eccentricity": 0.00061771,
        "meta_inclination": 5.3631,
        "meta_ra_of_asc_node": 75.0767,
        "meta_arg_of_pericenter": 202.1174,
        "meta_mean_anomaly": 159.0704,
        "meta_ephemeris_type": 0,
        "meta_classification_type": "U",
        "meta_norad_cat_id": 27513,
        "meta_element_set_no": 999,
        "meta_rev_at_epoch": 8529,
        "meta_bstar": 0,
        "meta_mean_motion_dot": 3.3e-07,
        "meta_mean_motion_ddot": 0,
        "tle_line1": "1 27513U 02041A   25359.77113323  .00000033  00000+0  00000+0 0  9990",
        "tle_line2": "2 27513   5.3631  75.0767 0006177 202.1174 159.0704  1.00270895 85290"
      },
      "geometry": {
        "type": "Point",
        "coordinates": [
          -58.10505712194981,
          -3.9357285756385623
        ]
      }
    }
  ]
}